IRIDIUM 171             
1 43929U 19002H   24101.91646723  .00000206  00000+0  66362-4 0  9999
2 43929  86.3976 327.0059 0002091  82.5273 277.6160 14.34219861274688
IRIDIUM 170             
1 43930U 19002J   24102.37976420  .00001041  00000+0  16106-3 0  9990
2 43930  86.6095 326.6435 0002251  93.8357 266.3117 14.72269567282028
IRIDIUM 167             
1 43931U 19002K   24101.91012584  .00000097  00000+0  27659-4 0  9998
2 43931  86.3966 326.8059 0002080  84.4840 275.6593 14.34216574274682
IRIDIUM 181             
1 56726U 23068S   24102.21675518  .00000491  00000+0  13917-3 0  9996
2 56726  86.8693  17.1226 0002255  78.9635 281.1820 14.43564664 47476
IRIDIUM 177             
1 56727U 23068T   24102.43472128  .00001309  00000+0  16871-3 0  9994
2 56727  86.2007 347.0631 0002276  84.7957 275.3523 14.80242698 48501
IRIDIUM 174             
1 56728U 23068U   24102.42932377  .00001354  00000+0  17466-3 0  9992
2 56728  86.2015 347.1641 0002580  87.9386 272.2130 14.80242093 48501
IRIDIUM 178             
1 56729U 23068V   24102.22118444  .00001608  00000+0  20810-3 0  9991
2 56729  86.5833   1.5422 0002633  93.1788 266.9735 14.80238588 48476
IRIDIUM 179             
1 56730U 23068W   24102.21575775  .00001640  00000+0  21232-3 0  9991
2 56730  86.6845   4.8320 0002602  91.5725 268.5794 14.80240434 48470
